satname,norad_id,inclination_deg,eccentricity,mean_motion_rev_per_day,perigee_km,apogee_km,l1,l2
STARLINK-1008,44714,53.055,0.0001562,15.0640464,546.1155998196164,548.2790742665093,1 44714U 19074B   25333.25574060  .00001706  00000+0  13340-3 0  9993,2 44714  53.0550 277.4817 0001562  94.6379 265.4789 15.06404640333615
STARLINK-1011,44717,53.0428,0.0002458,16.10157147,244.7839167523107,248.0405451542474,1 44717U 19074E   25333.05762159  .00746777  31459-3  76748-3 0  9993,2 44717  53.0428 242.4420 0002458 163.0875 197.0241 16.10157147334089
STARLINK-1012,44718,53.0532,0.0001308,15.0640257,546.2978467085131,548.1095158307335,1 44718U 19074F   25333.83074296  .00003136  00000+0  22930-3 0  9991,2 44718  53.0532 274.9016 0001308  86.8989 273.2149 15.06402570333695
STARLINK-1017,44723,53.0487,0.0005704,15.17142758,510.5494384506419,518.4125370510683,1 44723U 19074L   25333.55228623  .00009449  00000+0  48538-3 0  9996,2 44723  53.0487 270.7795 0005704  53.7492 306.4028 15.17142758333735
STARLINK-1019,44724,53.0543,0.0003829,15.54361564,401.4122354757046,406.6060029738064,1 44724U 19074M   25333.91670139  .00080227  00000+0  11980-2 0  9993,2 44724  53.0543 267.4533 0003829 101.8146  31.0919 15.54361564  5813
STARLINK-1020,44725,53.0554,0.0001631,15.06396336,546.0932614119702,548.3523137746834,1 44725U 19074N   25333.63355546  .00003076  00000+0  22531-3 0  9997,2 44725  53.0554 295.7878 0001631  90.1022 270.0153 15.06396336333387
STARLINK-1031,44736,53.05,0.0007626,15.55917687,394.3177221844526,404.65495329917667,1 44736U 19074Z   25333.91670139  .00051834  00000+0  73549-3 0  9998,2 44736  53.0500 254.4978 0007626  47.9509 308.0105 15.55917687  5852
STARLINK-1036,44741,53.055,0.0001341,15.06416715,546.2316469725065,548.0890117162362,1 44741U 19074AE  25333.59668913  .00006658  00000+0  46526-3 0  9994,2 44741  53.0550 295.9514 0001341  88.9630 271.1512 15.06416715333383
STARLINK-1039,44744,53.0518,0.0001777,15.14776156,520.4321213426065,522.8843085620001,1 44744U 19074AH  25333.64996006  .00004442  00000+0  25271-3 0  9993,2 44744  53.0518 312.1340 0001777 352.8125   7.2842 15.14776156333161
STARLINK-1042,44747,53.0458,0.0003185,15.44616269,430.3366334183129,434.67501289666507,1 44747U 19074AL  25333.07461206  .00021426  00000+0  46080-3 0  9994,2 44747  53.0458 215.5860 0003185 151.4971 208.6209 15.44616269334499
STARLINK-1043,44748,53.0703,0.0001451,15.42639504,437.33369681037766,439.31183343421526,1 44748U 19074AM  25333.91670139  .00048770  00000+0  11051-2 0  9995,2 44748  53.0703 312.2776 0001451 101.6761  54.2306 15.42639504  5642
STARLINK-1046,44751,53.054,0.0001267,15.06400728,546.3318853444307,548.0867681036234,1 44751U 19074AQ  25333.65012709  .00002177  00000+0  16497-3 0  9994,2 44751  53.0540 315.7128 0001267  87.7391 272.3743 15.06400728333110
STARLINK-1047,44752,53.071,7.66e-05,15.30046947,475.1470944065577,476.19709796009374,1 44752U 19074AR  25333.76915211  .00010059  00000+0  35291-3 0  9998,2 44752  53.0710 251.8892 0000766 270.4915  89.5996 15.30046947334030
STARLINK-1048,44753,53.0535,0.0001172,15.06403824,546.3881884764178,548.0114874312349,1 44753U 19074AS  25333.54323813  .00001628  00000+0  12812-3 0  9992,2 44753  53.0535 276.1920 0001172  86.2474 273.8649 15.06403824333657
STARLINK-1053,44758,53.0386,0.0005122,15.64858955,370.1861708118731,377.10269571210574,1 44758U 19074AX  25332.87513201  .00064632  00000+0  64968-3 0  9997,2 44758  53.0386 226.0971 0005122 125.1076 235.0419 15.64858955334318
STARLINK-1060,44765,53.0503,0.000907,15.7157433,348.29061793091114,360.5034346546063,1 44765U 19074BE  25333.91670139  .00182345  00000+0  13638-2 0  9994,2 44765  53.0503 266.3074 0009070  90.0880 309.8975 15.71574330  5869
STARLINK-1063,44768,53.0545,0.0001476,15.06408777,546.1624803513114,548.2068353047034,1 44768U 19074BH  25333.83810874  .00005464  00000+0  38530-3 0  9995,2 44768  53.0545 314.8707 0001476  92.2554 267.8603 15.06408777333150
STARLINK-1067,44771,53.0557,0.0001347,15.064096,546.2492949896359,548.1149759647333,1 44771U 19074BL  25333.69435338  .00004323  00000+0  30884-3 0  9998,2 44771  53.0557 315.5164 0001347  88.4017 271.7127 15.06409600333128
STARLINK-1068,44772,53.0544,0.0001534,15.06385964,546.1922215228979,548.3169316585963,1 44772U 19074BM  25333.22073617  .00016517  00000+0  11256-2 0  9995,2 44772  53.0544 297.6406 0001534  99.8885 260.2278 15.06385964333329
STARLINK-1112,44925,53.0484,0.0004301,15.59958509,384.8670294143785,390.6870686793691,1 44925U 20001M   25332.45031882  .00120662  00000+0  14520-2 0  9993,2 44925  53.0484  28.8378 0004301 328.7917  31.2839 15.59958509325328
STARLINK-1114,44927,53.0544,0.0001228,15.06389767,546.3924841327234,548.0933574412693,1 44927U 20001P   25333.59114971 -.00000294  00000+0 -86290-6 0  9999,2 44927  53.0544  75.9798 0001228  88.1777 271.9353 15.06389767324769
STARLINK-1123,44930,53.0561,0.0001361,15.06383619,546.3192170271886,548.2043105706944,1 44930U 20001S   25333.60590122 -.00000054  00000+0  15265-4 0  9996,2 44930  53.0561  75.9123 0001361  85.2411 274.8733 15.06383619324769
STARLINK-1144,44933,53.0417,0.00018,15.6904948,360.4044130522525,362.830724697048,1 44933U 20001V   25333.91670139  .00217819  00000+0  18042-2 0  9992,2 44933  53.0417 357.0549 0001800 169.5176 246.1779 15.69049480  6000
STARLINK-1094,44941,53.0547,0.0001363,15.06396948,546.276985611109,548.1648381778923,1 44941U 20001AD  25333.55244477 -.00001166  00000+0 -59376-4 0  9998,2 44941  53.0547  56.1536 0001363  82.2934 277.8210 15.06396948325036
STARLINK-1122,44949,53.0536,0.0001148,15.06397714,546.423533389122,548.013595026664,1 44949U 20001AM  25332.97744138  .00005036  00000+0  35677-3 0  9995,2 44949  53.0536  58.7304 0001148  97.6068 262.5051 15.06397714324947
STARLINK-1080,44961,53.0539,0.0001629,15.06398331,546.0885330742585,548.3448133009833,1 44961U 20001AZ  25333.57272819  .00000466  00000+0  50213-4 0  9994,2 44961  53.0539  36.0614 0001629  84.8886 275.2289 15.06398331325320
STARLINK-1090,44968,53.0544,0.000145,15.06403619,546.19629231411,548.2046401793214,1 44968U 20001BG  25332.51485336  .00005847  00000+0  41109-3 0  9995,2 44968  53.0544  40.8114 0001450  93.2373 266.8782 15.06403619325160
STARLINK-1107,44972,53.002,0.0007666,15.87657878,303.7249960876288,313.9774864591491,1 44972U 20001BL  25333.91670139  .00555358  00000+0  19107-2 0  9991,2 44972  53.0020 294.0318 0007666  90.3943   0.5472 15.87657878  6026
STARLINK-1132,45044,53.0554,0.0001516,15.06400871,546.1590060133212,548.2587708866995,1 45044U 20006A   25333.80125338  .00003796  00000+0  27362-3 0  9998,2 45044  53.0554 355.0383 0001516  89.9913 270.1250 15.06400871321689
STARLINK-1131,45047,53.0555,0.0001374,15.06392758,546.2822077726005,548.1852996557209,1 45047U 20006D   25333.31293512  .00001243  00000+0  10232-3 0  9990,2 45047  53.0555  17.7681 0001374  90.9989 269.1158 15.06392758321323
STARLINK-1134,45048,53.0385,0.0005192,15.31125639,468.8958445198541,476.00949683388626,1 45048U 20006E   25333.76082397  .00071909  00000+0  23475-2 0  9995,2 45048  53.0385 348.7985 0005192 278.1351  81.9060 15.31125639321775
STARLINK-1156,45054,53.0568,0.0001546,15.06390183,546.1709822541297,548.312309331408,1 45054U 20006L   25333.81415520  .00000394  00000+0  45380-4 0  9997,2 45054  53.0568  14.9765 0001546  88.9229 271.1937 15.06390183321409
STARLINK-1159,45057,53.0544,0.0004557,15.54467905,400.6093220230896,406.79028808721705,1 45057U 20006P   25333.58685096  .00111209  00000+0  16449-2 0  9991,2 45057  53.0544   7.0721 0004557  22.7359 337.3852 15.54467905321508
STARLINK-1166,45060,53.0551,0.0001424,15.06387699,546.2630839848789,548.2354339914391,1 45060U 20006S   25333.30918331 -.00001236  00000+0 -64139-4 0  9997,2 45060  53.0551  17.2461 0001424  92.1840 267.9312 15.06387699321338
STARLINK-1169,45061,53.0554,0.0001436,15.06391158,546.2441735829279,548.2331414717701,1 45061U 20006T   25333.51559912  .00002121  00000+0  16130-3 0  9996,2 45061  53.0554  16.3188 0001436  87.4063 272.7090 15.06391158321360
STARLINK-1171,45062,53.0539,0.0008643,15.37383156,447.9461250837103,459.75589956181193,1 45062U 20006U   25333.26358536  .00074011  00000+0  19793-2 0  9992,2 45062  53.0539   9.3247 0008643  11.8554 348.2650 15.37383156321448
STARLINK-1133,45064,53.0566,0.0001313,15.06396585,546.3127248012916,548.1313240811096,1 45064U 20006W   25333.77913926  .00001671  00000+0  13104-3 0  9993,2 45064  53.0566 355.1342 0001313  87.7463 272.3677 15.06396585321684
STARLINK-1167,45071,53.0555,0.0001473,15.0639877,546.1952233158181,548.2354321115627,1 45071U 20006AD  25333.80493662  .00001486  00000+0  11866-3 0  9992,2 45071  53.0555 355.0193 0001473  89.4747 270.6411 15.06398770321689
STARLINK-1168,45072,53.0546,0.0001427,15.06393666,546.2427207946012,548.2192208134702,1 45072U 20006AE  25333.27785157  .00002808  00000+0  20738-3 0  9994,2 45072  53.0546 357.3852 0001427  79.1253 280.9897 15.06393666321607
STARLINK-1172,45074,53.0545,0.0001419,15.06393448,546.2489291375341,548.2143487572675,1 45074U 20006AG  25333.28890547  .00000526  00000+0  54226-4 0  9992,2 45074  53.0545 357.3367 0001419  84.3966 275.7185 15.06393448321609
STARLINK-1153,45080,53.0548,0.0001406,15.06398545,546.2423126730746,548.1897219415414,1 45080U 20006AN  25333.79756884  .00005124  00000+0  36266-3 0  9992,2 45080  53.0548 355.0509 0001406  91.2216 268.8934 15.06398545321689
STARLINK-1151,45081,53.0543,0.0001968,15.10047433,534.694495710266,537.4159217636252,1 45081U 20006AP  25333.91670139  .00057257  00000+0  34696-2 0  9993,2 45081  53.0543 354.5178 0001968  87.0479 318.8222 15.10047433  5843
STARLINK-1185,45087,53.0558,0.0001335,15.06397854,546.2936002164652,548.1426700375441,1 45087U 20006AV  25333.29443507  .00001966  00000+0  15082-3 0  9992,2 45087  53.0558 337.3103 0001335  83.7266 276.3876 15.06397854321896
